STARLINK-2022           
1 47643U 21012Z   24213.17940233  .00002397  00000+0  17969-3 0  9996
2 47643  53.0538 164.5651 0001468  97.5479 262.5676 15.06413260191348
